{
  "type": "FeatureCollection",
  "features": [
    {
      "type": "Feature",
      "properties": {
        "norad_id": 67077,
        "name": "STARLINK-36243",
        "group": "last-30-days",
        "lat": 36.55734884256843,
        "lon": -137.17818160292285,
        "alt_km": 353.9984261295094,
        "timestamp": "2025-12-27T19:21:57.546787+00:00",
        "meta_object_name": "STARLINK-36243",
        "meta_object_id": "2025-298C",
        "meta_epoch": "2025-12-27T12:00:02.000160",
        "meta_mean_motion": 15.72264261,
        "meta_eccentricity": 0.0003403,
        "meta_inclination": 69.9995,
        "meta_ra_of_asc_node": 208.0167,
        "meta_arg_of_pericenter": 271.8672,
        "meta_mean_anomaly": 191.6274,
        "meta_ephemeris_type": 0,
        "meta_classification_type": "U",
        "meta_norad_cat_id": 67077,
        "meta_element_set_no": 999,
        "meta_rev_at_epoch": 335,
        "meta_bstar": -0.014281,
        "meta_mean_motion_dot": -0.01676953,
        "meta_mean_motion_ddot": 0,
        "tle_line1": "1 67077U 25298C   25361.50002315 -.01676953  00000+0 -14281-1 0  9991",
        "tle_line2": "2 67077  69.9995 208.0167 0003403 271.8672 191.6274 15.72264261  3350"
      },
      "geometry": {
        "type": "Point",
        "coordinates": [
          -137.17818160292285,
          36.55734884256843
        ]
      }
    },
    {
      "type": "Feature",
      "properties": {
        "norad_id": 67078,
        "name": "STARLINK-36236",
        "group": "last-30-days",
        "lat": 38.243342347385685,
        "lon": -136.16706673311592,
        "alt_km": 353.7582267336611,
        "timestamp": "2025-12-27T19:21:57.546796+00:00",
        "meta_object_name": "STARLINK-36236",
        "meta_object_id": "2025-298D",
        "meta_epoch": "2025-12-27T12:00:02.000160",
        "meta_mean_motion": 15.72335437,
        "meta_eccentricity": 0.0003547,
        "meta_inclination": 69.9997,
        "meta_ra_of_asc_node": 208.0146,
        "meta_arg_of_pericenter": 274.8652,
        "meta_mean_anomaly": 190.4561,
        "meta_ephemeris_type": 0,
        "meta_classification_type": "U",
        "meta_norad_cat_id": 67078,
        "meta_element_set_no": 999,
        "meta_rev_at_epoch": 335,
        "meta_bstar": -0.015188,
        "meta_mean_motion_dot": -0.01775339,
        "meta_mean_motion_ddot": 0,
        "tle_line1": "1 67078U 25298D   25361.50002315 -.01775339  00000+0 -15188-1 0  9997",
        "tle_line2": "2 67078  69.9997 208.0146 0003547 274.8652 190.4561 15.72335437  3350"
      },
      "geometry": {
        "type": "Point",
        "coordinates": [
          -136.16706673311592,
          38.243342347385685
        ]
      }
    },
    {
      "type": "Feature",
      "properties": {
        "norad_id": 67079,
        "name": "STARLINK-36159",
        "group": "last-30-days",
        "lat": 39.33939920079594,
        "lon": -135.48027530888325,
        "alt_km": 356.18108586601466,
        "timestamp": "2025-12-27T19:21:57.546805+00:00",
        "meta_object_name": "STARLINK-36159",
        "meta_object_id": "2025-298E",
        "meta_epoch": "2025-12-27T12:00:02.000160",
        "meta_mean_motion": 15.71864348,
        "meta_eccentricity": 0.0003547,
        "meta_inclination": 69.9997,
        "meta_ra_of_asc_node": 208.0132,
        "meta_arg_of_pericenter": 270.8728,
        "meta_mean_anomaly": 196.3997,
        "meta_ephemeris_type": 0,
        "meta_classification_type": "U",
        "meta_norad_cat_id": 67079,
        "meta_element_set_no": 999,
        "meta_rev_at_epoch": 335,
        "meta_bstar": -0.02044,
        "meta_mean_motion_dot": -0.02306771,
        "meta_mean_motion_ddot": 0,
        "tle_line1": "1 67079U 25298E   25361.50002315 -.02306771  00000+0 -20440-1 0  9996",
        "tle_line2": "2 67079  69.9997 208.0132 0003547 270.8728 196.3997 15.71864348  3351"
      },
      "geometry": {
        "type": "Point",
        "coordinates": [
          -135.48027530888325,
          39.33939920079594
        ]
      }
    },
    {
      "type": "Feature",
      "properties": {
        "norad_id": 67080,
        "name": "STARLINK-36158",
        "group": "last-30-days",
        "lat": 41.97760558027105,
        "lon": -133.72565572833062,
        "alt_km": 353.442038872151,
        "timestamp": "2025-12-27T19:21:57.546817+00:00",
        "meta_object_name": "STARLINK-36158",
        "meta_object_id": "2025-298F",
        "meta_epoch": "2025-12-27T12:00:02.000160",
        "meta_mean_motion": 15.72256172,
        "meta_eccentricity": 0.0003505,
        "meta_inclination": 69.9997,
        "meta_ra_of_asc_node": 208.0093,
        "meta_arg_of_pericenter": 271.2028,
        "meta_mean_anomaly": 198.3439,
        "meta_ephemeris_type": 0,
        "meta_classification_type": "U",
        "meta_norad_cat_id": 67080,
        "meta_element_set_no": 999,
        "meta_rev_at_epoch": 329,
        "meta_bstar": -0.014403,
        "meta_mean_motion_dot": -0.01689155,
        "meta_mean_motion_ddot": 0,
        "tle_line1": "1 67080U 25298F   25361.50002315 -.01689155  00000+0 -14403-1 0  9999",
        "tle_line2": "2 67080  69.9997 208.0093 0003505 271.2028 198.3439 15.72256172  3298"
      },
      "geometry": {
        "type": "Point",
        "coordinates": [
          -133.72565572833062,
          41.97760558027105
        ]
      }
    },
    {
      "type": "Feature",
      "properties": {
        "norad_id": 67081,
        "name": "STARLINK-35864",
        "group": "last-30-days",
        "lat": 43.70022174505052,
        "lon": -132.4874093203501,
        "alt_km": 353.19280900805916,
        "timestamp": "2025-12-27T19:21:57.546826+00:00",
        "meta_object_name": "STARLINK-35864",
        "meta_object_id": "2025-298G",
        "meta_epoch": "2025-12-27T12:00:02.000160",
        "meta_mean_motion": 15.72250334,
        "meta_eccentricity": 0.0003435,
        "meta_inclination": 69.9997,
        "meta_ra_of_asc_node": 208.0073,
        "meta_arg_of_pericenter": 271.5673,
        "meta_mean_anomaly": 199.9299,
        "meta_ephemeris_type": 0,
        "meta_classification_type": "U",
        "meta_norad_cat_id": 67081,
        "meta_element_set_no": 999,
        "meta_rev_at_epoch": 335,
        "meta_bstar": -0.014356,
        "meta_mean_motion_dot": -0.01683863,
        "meta_mean_motion_ddot": 0,
        "tle_line1": "1 67081U 25298G   25361.50002315 -.01683863  00000+0 -14356-1 0  9997",
        "tle_line2": "2 67081  69.9997 208.0073 0003435 271.5673 199.9299 15.72250334  3350"
      },
      "geometry": {
        "type": "Point",
        "coordinates": [
          -132.4874093203501,
          43.70022174505052
        ]
      }
    },
    {
      "type": "Feature",
      "properties": {
        "norad_id": 67082,
        "name": "STARLINK-36035",
        "group": "last-30-days",
        "lat": 45.46647652011255,
        "lon": -131.1303429067082,
        "alt_km": 352.98693910890415,
        "timestamp": "2025-12-27T19:21:57.546836+00:00",
        "meta_object_name": "STARLINK-36035",
        "meta_object_id": "2025-298H",
        "meta_epoch": "2025-12-27T12:00:02.000160",
        "meta_mean_motion": 15.7223912,
        "meta_eccentricity": 0.0003455,
        "meta_inclination": 69.9998,
        "meta_ra_of_asc_node": 208.0051,
        "meta_arg_of_pericenter": 272.2139,
        "meta_mean_anomaly": 201.3036,
        "meta_ephemeris_type": 0,
        "meta_classification_type": "U",
        "meta_norad_cat_id": 67082,
        "meta_element_set_no": 999,
        "meta_rev_at_epoch": 335,
        "meta_bstar": -0.014281,
        "meta_mean_motion_dot": -0.01675422,
        "meta_mean_motion_ddot": 0,
        "tle_line1": "1 67082U 25298H   25361.50002315 -.01675422  00000+0 -14281-1 0  9997",
        "tle_line2": "2 67082  69.9998 208.0051 0003455 272.2139 201.3036 15.72239120  3352"
      },
      "geometry": {
        "type": "Point",
        "coordinates": [
          -131.1303429067082,
          45.46647652011255
        ]
      }
    },
    {
      "type": "Feature",
      "properties": {
        "norad_id": 67083,
        "name": "STARLINK-36170",
        "group": "last-30-days",
        "lat": 47.23694406306149,
        "lon": -129.66749315846488,
        "alt_km": 352.7468341328822,
        "timestamp": "2025-12-27T19:21:57.546845+00:00",
        "meta_object_name": "STARLINK-36170",
        "meta_object_id": "2025-298J",
        "meta_epoch": "2025-12-27T12:00:02.000160",
        "meta_mean_motion": 15.72231131,
        "meta_eccentricity": 0.000334,
        "meta_inclination": 69.9995,
        "meta_ra_of_asc_node": 208.0023,
        "meta_arg_of_pericenter": 271.6978,
        "meta_mean_anomaly": 203.8649,
        "meta_ephemeris_type": 0,
        "meta_classification_type": "U",
        "meta_norad_cat_id": 67083,
        "meta_element_set_no": 999,
        "meta_rev_at_epoch": 335,
        "meta_bstar": -0.01425,
        "meta_mean_motion_dot": -0.01671605,
        "meta_mean_motion_ddot": 0,
        "tle_line1": "1 67083U 25298J   25361.50002315 -.01671605  00000+0 -14250-1 0  9993",
        "tle_line2": "2 67083  69.9995 208.0023 0003340 271.6978 203.8649 15.72231131  3357"
      },
      "geometry": {
        "type": "Point",
        "coordinates": [
          -129.66749315846488,
          47.23694406306149
        ]
      }
    }
  ]
}